{
    "links": {
        "self": "http://www.neowsapp.com/rest/v1/neo/3401380?api_key=iIulBulltgU6a56xZRHN4H3l9WmuAYTsLGpBGhQ2"
    },
    "id": "3401380",
    "neo_reference_id": "3401380",
    "name": "(2008 CF)",
    "designation": "2008 CF",
    "nasa_jpl_url": "http://ssd.jpl.nasa.gov/sbdb.cgi?sstr=3401380",
    "absolute_magnitude_h": 26.5,
    "estimated_diameter": {
        "kilometers": {
            "estimated_diameter_min": 0.0133215567,
            "estimated_diameter_max": 0.0297879063
        },
        "meters": {
            "estimated_diameter_min": 13.3215566698,
            "estimated_diameter_max": 29.7879062798
        },
        "miles": {
            "estimated_diameter_min": 0.008277629,
            "estimated_diameter_max": 0.0185093411
        },
        "feet": {
            "estimated_diameter_min": 43.7058959846,
            "estimated_diameter_max": 97.7293544391
        }
    },
    "is_potentially_hazardous_asteroid": false,
    "close_approach_data": [
        {
            "close_approach_date": "2008-02-11",
            "close_approach_date_full": "2008-Feb-11 15:11",
            "epoch_date_close_approach": 1202742660000,
            "relative_velocity": {
                "kilometers_per_second": "5.936725642",
                "kilometers_per_hour": "21372.2123110484",
                "miles_per_hour": "13279.8615884956"
            },
            "miss_distance": {
                "astronomical": "0.041567674",
                "lunar": "16.169825186",
                "kilometers": "6218435.49125438",
                "miles": "3863956.640215244"
            },
            "orbiting_body": "Earth"
        }
    ],
    "orbital_data": {
        "orbit_id": "8",
        "orbit_determination_date": "2017-04-06 09:04:34",
        "first_observation_date": "2008-02-01",
        "last_observation_date": "2008-02-16",
        "data_arc_in_days": 15,
        "observations_used": 28,
        "orbit_uncertainty": "8",
        "minimum_orbit_intersection": ".0368448",
        "jupiter_tisserand_invariant": "3.773",
        "epoch_osculation": "2454500.5",
        "eccentricity": ".469712964977777",
        "semi_major_axis": "1.928071984064878",
        "inclination": "1.910177404263079",
        "ascending_node_longitude": "124.3809481635708",
        "orbital_period": "977.8748870283589",
        "perihelion_distance": "1.022431575739179",
        "perihelion_argument": "25.67737809945297",
        "aphelion_distance": "2.833712392390577",
        "perihelion_time": "2454514.329779776482",
        "mean_anomaly": "354.9086321925464",
        "mean_motion": ".3681452553649226",
        "equinox": "J2000",
        "orbit_class": {
            "orbit_class_type": "AMO",
            "orbit_class_description": "Near-Earth asteroid orbits similar to that of 1221 Amor",
            "orbit_class_range": "1.017 AU < q (perihelion) < 1.3 AU"
        }
    },
    "is_sentry_object": false
}